[{"norad_id":"25851","company":"GLOBALSTAR","tle_line2":"2 25851  51.9954  80.3644 0014127 324.9951  46.3471 11.04538863 95007","launch_date":"1999-07-10","type":"LEO","tle_line1":"1 25851U 99037A   25156.79719186 -.00000076  00000+0 -46498-3 0  9994","satellite_name":"GLOBALSTAR M035"},{"norad_id":"25852","company":"GLOBALSTAR","tle_line2":"2 25852  51.9955 266.5276 0012675 147.1154 213.0437 11.19060973133561","launch_date":"1999-07-10","type":"LEO","tle_line1":"1 25852U 99037B   25156.72001933 -.00000059  00000+0  23730-3 0  9996","satellite_name":"GLOBALSTAR M032"},{"norad_id":"25853","company":"GLOBALSTAR","tle_line2":"2 25853  51.9806  68.4436 0000295 138.1264 221.9569 11.42205147131080","launch_date":"1999-07-10","type":"LEO","tle_line1":"1 25853U 99037C   25156.76555682 -.00000072  00000+0  14382-5 0  9996","satellite_name":"GLOBALSTAR M051"},{"norad_id":"25854","company":"GLOBALSTAR","tle_line2":"2 25854  51.9867 233.3942 0002836  29.6673 330.4304 11.55109203148917","launch_date":"1999-07-10","type":"LEO","tle_line1":"1 25854U 99037D   25157.52683430 -.00000110  00000+0 -74083-3 0  9991","satellite_name":"GLOBALSTAR M030"},{"norad_id":"25872","company":"GLOBALSTAR","tle_line2":"2 25872  51.9395   3.0675 0013456 161.7699 296.7581 11.33857048123685","launch_date":"1999-07-25","type":"LEO","tle_line1":"1 25872U 99041A   25156.75293725 -.00000058  00000+0  32780-3 0  9992","satellite_name":"GLOBALSTAR M048"},{"norad_id":"25873","company":"GLOBALSTAR","tle_line2":"2 25873  51.9975 199.3445 0002441 247.0195 126.4021 11.06841528147382","launch_date":"1999-07-25","type":"LEO","tle_line1":"1 25873U 99041B   25156.39687655  .00000000  00000+0  23724-2 0  9995","satellite_name":"GLOBALSTAR M026"},{"norad_id":"25874","company":"GLOBALSTAR","tle_line2":"2 25874  51.9382 110.6742 0013657 293.8394 238.4791 11.25694481121590","launch_date":"1999-07-25","type":"LEO","tle_line1":"1 25874U 99041C   25156.57310277 -.00000068  00000+0 -11031-4 0  9995","satellite_name":"GLOBALSTAR M043"},{"norad_id":"25875","company":"GLOBALSTAR","tle_line2":"2 25875  51.9611 227.9629 0063252  46.4653 314.1439 12.50583102188745","launch_date":"1999-07-25","type":"LEO","tle_line1":"1 25875U 99041D   25156.48422201 -.00000099  00000+0  96584-5 0  9997","satellite_name":"GLOBALSTAR M028"}]